CCSDS_OMM_VERS = 2.0
CREATION_DATE  = 
ORIGINATOR     = 

OBJECT_NAME    = STARLINK-36654
OBJECT_ID      = 2026-033T
CENTER_NAME    = EARTH
REF_FRAME      = TEME
TIME_SYSTEM    = UTC
MEAN_ELEMENT_THEORY = SGP/SGP4

EPOCH          = 2026-03-02T22:00:01.999584
MEAN_MOTION    = 15.81987997
ECCENTRICITY   = .00016827
INCLINATION    = 42.9977
RA_OF_ASC_NODE = 312.8653
ARG_OF_PERICENTER = 265.5994
MEAN_ANOMALY   = 35.2492

EPHEMERIS_TYPE = 0
CLASSIFICATION_TYPE = U
NORAD_CAT_ID   = 67838
ELEMENT_SET_NO = 999
REV_AT_EPOCH   = 357
BSTAR          = .30916023E-3
MEAN_MOTION_DOT = .6497E-3
MEAN_MOTION_DDOT = 0

CCSDS_OMM_VERS = 2.0
CREATION_DATE  = 
ORIGINATOR     = 

OBJECT_NAME    = STARLINK-36652
OBJECT_ID      = 2026-033U
CENTER_NAME    = EARTH
REF_FRAME      = TEME
TIME_SYSTEM    = UTC
MEAN_ELEMENT_THEORY = SGP/SGP4

EPOCH          = 2026-03-02T22:00:01.999584
MEAN_MOTION    = 15.82014004
ECCENTRICITY   = .00015647
INCLINATION    = 42.9974
RA_OF_ASC_NODE = 312.8547
ARG_OF_PERICENTER = 266.6502
MEAN_ANOMALY   = 38.4569

EPHEMERIS_TYPE = 0
CLASSIFICATION_TYPE = U
NORAD_CAT_ID   = 67839
ELEMENT_SET_NO = 999
REV_AT_EPOCH   = 357
BSTAR          = .44009057E-4
MEAN_MOTION_DOT = .8742E-4
MEAN_MOTION_DDOT = 0

CCSDS_OMM_VERS = 2.0
CREATION_DATE  = 
ORIGINATOR     = 

OBJECT_NAME    = STARLINK-36651
OBJECT_ID      = 2026-033V
CENTER_NAME    = EARTH
REF_FRAME      = TEME
TIME_SYSTEM    = UTC
MEAN_ELEMENT_THEORY = SGP/SGP4

EPOCH          = 2026-03-02T22:00:01.999584
MEAN_MOTION    = 15.82023218
ECCENTRICITY   = .00020969
INCLINATION    = 42.9975
RA_OF_ASC_NODE = 312.8445
ARG_OF_PERICENTER = 237.0192
MEAN_ANOMALY   = 72.3656

EPHEMERIS_TYPE = 0
CLASSIFICATION_TYPE = U
NORAD_CAT_ID   = 67840
ELEMENT_SET_NO = 999
REV_AT_EPOCH   = 357
BSTAR          = -.68020287E-4
MEAN_MOTION_DOT = -.14838E-3
MEAN_MOTION_DDOT = 0

CCSDS_OMM_VERS = 2.0
CREATION_DATE  = 
ORIGINATOR     = 

OBJECT_NAME    = STARLINK-36656
OBJECT_ID      = 2026-033W
CENTER_NAME    = EARTH
REF_FRAME      = TEME
TIME_SYSTEM    = UTC
MEAN_ELEMENT_THEORY = SGP/SGP4

EPOCH          = 2026-03-02T22:00:01.999584
MEAN_MOTION    = 15.81987343
ECCENTRICITY   = .00022288
INCLINATION    = 42.9977
RA_OF_ASC_NODE = 312.8331
ARG_OF_PERICENTER = 274.7795
MEAN_ANOMALY   = 38.8887

EPHEMERIS_TYPE = 0
CLASSIFICATION_TYPE = U
NORAD_CAT_ID   = 67841
ELEMENT_SET_NO = 999
REV_AT_EPOCH   = 357
BSTAR          = .26568007E-3
MEAN_MOTION_DOT = .55698E-3
MEAN_MOTION_DDOT = 0

CCSDS_OMM_VERS = 2.0
CREATION_DATE  = 
ORIGINATOR     = 

OBJECT_NAME    = STARLINK-36653
OBJECT_ID      = 2026-033X
CENTER_NAME    = EARTH
REF_FRAME      = TEME
TIME_SYSTEM    = UTC
MEAN_ELEMENT_THEORY = SGP/SGP4

EPOCH          = 2026-03-02T22:00:01.999584
MEAN_MOTION    = 15.81966247
ECCENTRICITY   = .00016369
INCLINATION    = 42.9976
RA_OF_ASC_NODE = 312.8222
ARG_OF_PERICENTER = 271.8983
MEAN_ANOMALY   = 46.0457

EPHEMERIS_TYPE = 0
CLASSIFICATION_TYPE = U
NORAD_CAT_ID   = 67842
ELEMENT_SET_NO = 999
REV_AT_EPOCH   = 357
BSTAR          = .5279882E-3
MEAN_MOTION_DOT = .111827E-2
MEAN_MOTION_DDOT = 0

CCSDS_OMM_VERS = 2.0
CREATION_DATE  = 
ORIGINATOR     = 

OBJECT_NAME    = STARLINK-36589
OBJECT_ID      = 2026-033Y
CENTER_NAME    = EARTH
REF_FRAME      = TEME
TIME_SYSTEM    = UTC
MEAN_ELEMENT_THEORY = SGP/SGP4

EPOCH          = 2026-03-02T22:00:01.999584
MEAN_MOTION    = 15.82034957
ECCENTRICITY   = .00019899
INCLINATION    = 42.9979
RA_OF_ASC_NODE = 312.8115
ARG_OF_PERICENTER = 276.6527
MEAN_ANOMALY   = 45.5382

EPHEMERIS_TYPE = 0
CLASSIFICATION_TYPE = U
NORAD_CAT_ID   = 67843
ELEMENT_SET_NO = 999
REV_AT_EPOCH   = 357
BSTAR          = -.1578916E-3
MEAN_MOTION_DOT = -.33683E-3
MEAN_MOTION_DDOT = 0

CCSDS_OMM_VERS = 2.0
CREATION_DATE  = 
ORIGINATOR     = 

OBJECT_NAME    = STARLINK-36598
OBJECT_ID      = 2026-033Z
CENTER_NAME    = EARTH
REF_FRAME      = TEME
TIME_SYSTEM    = UTC
MEAN_ELEMENT_THEORY = SGP/SGP4

EPOCH          = 2026-03-02T22:00:01.999584
MEAN_MOTION    = 15.82010326
ECCENTRICITY   = .00018369
INCLINATION    = 42.9978
RA_OF_ASC_NODE = 312.8011
ARG_OF_PERICENTER = 268.6922
MEAN_ANOMALY   = 57.7908

EPHEMERIS_TYPE = 0
CLASSIFICATION_TYPE = U
NORAD_CAT_ID   = 67844
ELEMENT_SET_NO = 999
REV_AT_EPOCH   = 357
BSTAR          = .8574119E-5
MEAN_MOTION_DOT = .1272E-4
MEAN_MOTION_DDOT = 0

CCSDS_OMM_VERS = 2.0
CREATION_DATE  = 
ORIGINATOR     = 

OBJECT_NAME    = STARLINK-36606
OBJECT_ID      = 2026-033AA
CENTER_NAME    = EARTH
REF_FRAME      = TEME
TIME_SYSTEM    = UTC
MEAN_ELEMENT_THEORY = SGP/SGP4

EPOCH          = 2026-03-02T22:00:01.999584
MEAN_MOTION    = 15.81984464
ECCENTRICITY   = .00018965
INCLINATION    = 42.9976
RA_OF_ASC_NODE = 312.7898
ARG_OF_PERICENTER = 269.1346
MEAN_ANOMALY   = 61.6179

EPHEMERIS_TYPE = 0
CLASSIFICATION_TYPE = U
NORAD_CAT_ID   = 67845
ELEMENT_SET_NO = 999
REV_AT_EPOCH   = 357
BSTAR          = .40593001E-3
MEAN_MOTION_DOT = .85666E-3
MEAN_MOTION_DDOT = 0

CCSDS_OMM_VERS = 2.0
CREATION_DATE  = 
ORIGINATOR     = 

OBJECT_NAME    = STARLINK-36658
OBJECT_ID      = 2026-033AB
CENTER_NAME    = EARTH
REF_FRAME      = TEME
TIME_SYSTEM    = UTC
MEAN_ELEMENT_THEORY = SGP/SGP4

EPOCH          = 2026-03-02T22:00:01.999584
MEAN_MOTION    = 15.81991883
ECCENTRICITY   = .00015528
INCLINATION    = 42.9975
RA_OF_ASC_NODE = 312.7792
ARG_OF_PERICENTER = 269.0942
MEAN_ANOMALY   = 65.9320

EPHEMERIS_TYPE = 0
CLASSIFICATION_TYPE = U
NORAD_CAT_ID   = 67846
ELEMENT_SET_NO = 999
REV_AT_EPOCH   = 357
BSTAR          = .26301779E-3
MEAN_MOTION_DOT = .5514E-3
MEAN_MOTION_DDOT = 0

CCSDS_OMM_VERS = 2.0
CREATION_DATE  = 
ORIGINATOR     = 

OBJECT_NAME    = STARLINK-36618
OBJECT_ID      = 2026-033AC
CENTER_NAME    = EARTH
REF_FRAME      = TEME
TIME_SYSTEM    = UTC
MEAN_ELEMENT_THEORY = SGP/SGP4

EPOCH          = 2026-03-02T21:07:13.898208
MEAN_MOTION    = 15.98941890
ECCENTRICITY   = .00030123
INCLINATION    = 42.9869
RA_OF_ASC_NODE = 311.4895
ARG_OF_PERICENTER = 257.9405
MEAN_ANOMALY   = 102.1136

EPHEMERIS_TYPE = 0
CLASSIFICATION_TYPE = U
NORAD_CAT_ID   = 67847
ELEMENT_SET_NO = 999
REV_AT_EPOCH   = 356
BSTAR          = -.7502403E-5
MEAN_MOTION_DOT = -.6455E-4
MEAN_MOTION_DDOT = .8483483E-5

CCSDS_OMM_VERS = 2.0
CREATION_DATE  = 
ORIGINATOR     = 

OBJECT_NAME    = STARLINK-36660
OBJECT_ID      = 2026-033AD
CENTER_NAME    = EARTH
REF_FRAME      = TEME
TIME_SYSTEM    = UTC
MEAN_ELEMENT_THEORY = SGP/SGP4

EPOCH          = 2026-03-02T22:00:01.999584
MEAN_MOTION    = 15.81993051
ECCENTRICITY   = .00018763
INCLINATION    = 42.9977
RA_OF_ASC_NODE = 312.7685
ARG_OF_PERICENTER = 250.2351
MEAN_ANOMALY   = 89.0658

EPHEMERIS_TYPE = 0
CLASSIFICATION_TYPE = U
NORAD_CAT_ID   = 67848
ELEMENT_SET_NO = 999
REV_AT_EPOCH   = 357
BSTAR          = .20774494E-3
MEAN_MOTION_DOT = .43384E-3
MEAN_MOTION_DDOT = 0

CCSDS_OMM_VERS = 2.0
CREATION_DATE  = 
ORIGINATOR     = 

OBJECT_NAME    = STARLINK-36602
OBJECT_ID      = 2026-033AE
CENTER_NAME    = EARTH
REF_FRAME      = TEME
TIME_SYSTEM    = UTC
MEAN_ELEMENT_THEORY = SGP/SGP4

EPOCH          = 2026-03-02T22:00:01.999584
MEAN_MOTION    = 15.81977337
ECCENTRICITY   = .00017951
INCLINATION    = 42.9976
RA_OF_ASC_NODE = 312.7572
ARG_OF_PERICENTER = 306.0056
MEAN_ANOMALY   = 37.5806

EPHEMERIS_TYPE = 0
CLASSIFICATION_TYPE = U
NORAD_CAT_ID   = 67849
ELEMENT_SET_NO = 999
REV_AT_EPOCH   = 357
BSTAR          = .29450325E-3
MEAN_MOTION_DOT = .61811E-3
MEAN_MOTION_DDOT = 0

